[{"OBJECT_NAME":"STARLINK-34204","OBJECT_ID":"2025-244H","EPOCH":"2026-03-09T21:09:45.993312","MEAN_MOTION":15.3017075,"ECCENTRICITY":8.612e-5,"INCLINATION":53.1576,"RA_OF_ASC_NODE":228.6865,"ARG_OF_PERICENTER":108.7651,"MEAN_ANOMALY":251.3444,"EPHEMERIS_TYPE":0,"CLASSIFICATION_TYPE":"U","NORAD_CAT_ID":66213,"ELEMENT_SET_NO":999,"REV_AT_EPOCH":2169,"BSTAR":0.0012331494,"MEAN_MOTION_DOT":0.00036309,"MEAN_MOTION_DDOT":0},{"OBJECT_NAME":"TRANSPORTER-1 OBJECT L","OBJECT_ID":"2021-006L","EPOCH":"2026-03-09T22:38:42.795168","MEAN_MOTION":15.33192932,"ECCENTRICITY":0.00114726,"INCLINATION":97.2368,"RA_OF_ASC_NODE":117.6447,"ARG_OF_PERICENTER":180.5165,"MEAN_ANOMALY":179.6068,"EPHEMERIS_TYPE":0,"CLASSIFICATION_TYPE":"U","NORAD_CAT_ID":47423,"ELEMENT_SET_NO":999,"REV_AT_EPOCH":28445,"BSTAR":0.00025636794,"MEAN_MOTION_DOT":8.162e-5,"MEAN_MOTION_DDOT":0}]
